{"type":"FeatureCollection","features":[{"type":"Feature","geometry":{"type":"Polygon","coordinates":[[[-75.08661,39.44781],[-75.08447,39.4441],[-75.07304,39.44681],[-75.06977,39.44665],[-75.06154,39.44283],[-75.0546,39.43843],[-75.05342,39.43767],[-75.04026,39.42933],[-75.03825,39.42805],[-75.03394,39.42532],[-75.02679,39.42078],[-75.02068,39.4169],[-75.01282,39.41191],[-74.99647,39.40152],[-74.98956,39.39713],[-74.97112,39.38541],[-74.96278,39.3801],[-74.95647,39.37949],[-74.94196,39.38925],[-74.93866,39.38607],[-74.93848,39.38609],[-74.9383,39.38603],[-74.93821,39.3859],[-74.93812,39.38578],[-74.93802,39.38579],[-74.93771,39.38595],[-74.93766,39.38609],[-74.93771,39.38623],[-74.93781,39.38629],[-74.93787,39.38635],[-74.93787,39.38646],[-74.93779,39.38649],[-74.93764,39.38647],[-74.9375,39.38652],[-74.93745,39.38665],[-74.93738,39.38679],[-74.9371,39.38697],[-74.93679,39.38703],[-74.93649,39.38717],[-74.93607,39.38749],[-74.93588,39.3876],[-74.93563,39.38778],[-74.93547,39.38783],[-74.9352,39.38778],[-74.93481,39.38767],[-74.93457,39.38763],[-74.9344,39.38765],[-74.93426,39.38764],[-74.93411,39.38755],[-74.93395,39.38751],[-74.93386,39.38747],[-74.93371,39.38736],[-74.93341,39.38729],[-74.93314,39.38734],[-74.93293,39.38748],[-74.93264,39.38755],[-74.93244,39.38773],[-74.93217,39.38784],[-74.9319,39.38797],[-74.93172,39.38819],[-74.93163,39.38828],[-74.93137,39.38838],[-74.93118,39.38852],[-74.931,39.38864],[-74.93077,39.38876],[-74.93027,39.3891],[-74.92993,39.38945],[-74.92978,39.38952],[-74.92965,39.3896],[-74.92961,39.38981],[-74.92954,39.38987],[-74.92926,39.38985],[-74.92902,39.39],[-74.92891,39.39011],[-74.92861,39.39023],[-74.92841,39.39042],[-74.92813,39.39056],[-74.92787,39.39073],[-74.92775,39.39082],[-74.92758,39.39104],[-74.92741,39.39113],[-74.92735,39.39125],[-74.92713,39.39142],[-74.92709,39.39157],[-74.927,39.39164],[-74.92691,39.39179],[-74.92679,39.39193],[-74.9266,39.39197],[-74.9265,39.39205],[-74.92648,39.39218],[-74.92645,39.39224],[-74.92633,39.39226],[-74.92615,39.39232],[-74.92596,39.39244],[-74.92595,39.3925],[-74.92587,39.39257],[-74.92585,39.39263],[-74.92584,39.3927],[-74.92579,39.39285],[-74.92571,39.39284],[-74.92563,39.39287],[-74.92557,39.393],[-74.92544,39.39314],[-74.9253,39.39318],[-74.92517,39.39318],[-74.9251,39.39324],[-74.92508,39.39342],[-74.92513,39.39349],[-74.92512,39.39356],[-74.92495,39.39361],[-74.92486,39.39368],[-74.92477,39.3937],[-74.92466,39.39376],[-74.92461,39.39392],[-74.92455,39.39401],[-74.92452,39.3941],[-74.92454,39.39421],[-74.92452,39.39442],[-74.92449,39.39451],[-74.92439,39.39457],[-74.92434,39.39465],[-74.92439,39.39476],[-74.92438,39.39483],[-74.92429,39.39495],[-74.92428,39.39506],[-74.92416,39.39519],[-74.92404,39.39529],[-74.92398,39.39536],[-74.92399,39.39543],[-74.92402,39.39552],[-74.92391,39.39566],[-74.92393,39.39571],[-74.92395,39.39581],[-74.92388,39.3959],[-74.92388,39.39598],[-74.92392,39.3961],[-74.92388,39.39628],[-74.92377,39.3964],[-74.92374,39.3965],[-74.92376,39.39673],[-74.92378,39.39686],[-74.92377,39.39699],[-74.92382,39.39718],[-74.92381,39.39731],[-74.92369,39.39754],[-74.92366,39.39767],[-74.92357,39.39779],[-74.92357,39.39793],[-74.92352,39.39822],[-74.92346,39.39827],[-74.92319,39.39835],[-74.9231,39.39845],[-74.92276,39.39858],[-74.92281,39.3987],[-74.92288,39.39889],[-74.92273,39.39897],[-74.9225,39.39913],[-74.92242,39.39937],[-74.92231,39.39946],[-74.92213,39.39958],[-74.92206,39.39975],[-74.92209,39.3999],[-74.92206,39.40003],[-74.9221,39.40016],[-74.92215,39.40026],[-74.92211,39.40039],[-74.92198,39.40053],[-74.92197,39.40072],[-74.92194,39.4008],[-74.9219,39.40087],[-74.92199,39.401],[-74.92219,39.40127],[-74.92225,39.40139],[-74.92208,39.40153],[-74.92183,39.40168],[-74.92179,39.40182],[-74.9219,39.40192],[-74.92202,39.40207],[-74.92208,39.40225],[-74.92206,39.40237],[-74.92197,39.40248],[-74.92194,39.40266],[-74.92201,39.40282],[-74.9221,39.40293],[-74.9221,39.40309],[-74.92218,39.40325],[-74.92214,39.40352],[-74.92211,39.40365],[-74.92212,39.4041],[-74.92205,39.40421],[-74.92199,39.40443],[-74.92205,39.40459],[-74.92198,39.40474],[-74.92175,39.40485],[-74.92173,39.40492],[-74.92164,39.40506],[-74.92148,39.40516],[-74.92116,39.4053],[-74.92103,39.40539],[-74.92083,39.4055],[-74.92064,39.40554],[-74.92027,39.4055],[-74.91993,39.40558],[-74.91956,39.40571],[-74.91932,39.40576],[-74.91888,39.40592],[-74.91868,39.40596],[-74.9186,39.40591],[-74.91851,39.40591],[-74.91809,39.40619],[-74.91789,39.40649],[-74.9176,39.40655],[-74.91727,39.40663],[-74.91701,39.40672],[-74.9168,39.40674],[-74.9168,39.40685],[-74.9168,39.40691],[-74.91662,39.4069],[-74.91653,39.40693],[-74.9164,39.40706],[-74.91622,39.407],[-74.91592,39.40693],[-74.91583,39.40705],[-74.91576,39.40718],[-74.91564,39.40715],[-74.91552,39.40721],[-74.91546,39.40726],[-74.91533,39.40719],[-74.91519,39.40722],[-74.91507,39.40741],[-74.91491,39.40744],[-74.91471,39.40751],[-74.91432,39.40761],[-74.91404,39.40776],[-74.9138,39.40803],[-74.91369,39.40812],[-74.91353,39.40814],[-74.9135,39.40821],[-74.91327,39.40839],[-74.91287,39.40854],[-74.91261,39.40877],[-74.91233,39.40892],[-74.91193,39.40898],[-74.91175,39.4091],[-74.91143,39.40919],[-74.91102,39.40942],[-74.91099,39.40951],[-74.9108,39.40953],[-74.91042,39.40976],[-74.90987,39.41006],[-74.9096,39.41033],[-74.9093,39.41051],[-74.90919,39.41092],[-74.90885,39.4111],[-74.90878,39.41128],[-74.90888,39.41151],[-74.90885,39.41172],[-74.90857,39.41213],[-74.90838,39.41227],[-74.90809,39.41237],[-74.90814,39.41252],[-74.90811,39.41276],[-74.90769,39.41319],[-74.90752,39.4134],[-74.90756,39.4136],[-74.90746,39.41379],[-74.90751,39.41389],[-74.90764,39.41398],[-74.90771,39.41408],[-74.90765,39.41419],[-74.90771,39.41427],[-74.90798,39.4145],[-74.90799,39.41464],[-74.90796,39.41479],[-74.90799,39.41492],[-74.90786,39.41509],[-74.90786,39.41517],[-74.90796,39.41524],[-74.90797,39.41537],[-74.90817,39.41546],[-74.90827,39.41567],[-74.90816,39.41583],[-74.90794,39.41589],[-74.908,39.41605],[-74.90806,39.41614],[-74.90802,39.41632],[-74.90806,39.41649],[-74.90835,39.41683],[-74.90833,39.41718],[-74.90835,39.41736],[-74.9084,39.41751],[-74.90858,39.41765],[-74.90869,39.41775],[-74.90866,39.41786],[-74.90868,39.41815],[-74.90877,39.41842],[-74.90895,39.41855],[-74.90892,39.41866],[-74.90885,39.41881],[-74.90896,39.41897],[-74.909,39.41923],[-74.90908,39.41983],[-74.90879,39.42006],[-74.90857,39.42038],[-74.90861,39.42049],[-74.90853,39.42057],[-74.90844,39.4207],[-74.90837,39.42093],[-74.90827,39.42103],[-74.90822,39.42122],[-74.90832,39.42137],[-74.90864,39.42178],[-74.90877,39.42206],[-74.90905,39.42209],[-74.90943,39.42215],[-74.90974,39.4221],[-74.90986,39.42206],[-74.91021,39.42223],[-74.91042,39.42228],[-74.91072,39.42242],[-74.91139,39.42281],[-74.91204,39.42303],[-74.91275,39.42324],[-74.91293,39.42332],[-74.91308,39.42345],[-74.91319,39.42371],[-74.91327,39.42402],[-74.91334,39.42411],[-74.91334,39.4242],[-74.91331,39.42433],[-74.91329,39.42443],[-74.91329,39.42457],[-74.9133,39.42467],[-74.91321,39.42475],[-74.91317,39.42488],[-74.913,39.42507],[-74.91281,39.4253],[-74.9128,39.42545],[-74.91281,39.4256],[-74.9128,39.4257],[-74.91285,39.42581],[-74.91281,39.4259],[-74.91284,39.42599],[-74.9128,39.42615],[-74.91287,39.42628],[-74.91295,39.42637],[-74.9129,39.42642],[-74.9129,39.42652],[-74.91288,39.42671],[-74.91279,39.42697],[-74.91273,39.42718],[-74.91247,39.42749],[-74.91242,39.42771],[-74.91229,39.42801],[-74.91229,39.42817],[-74.91222,39.42825],[-74.91198,39.42832],[-74.9119,39.42845],[-74.91179,39.4287],[-74.91173,39.42899],[-74.9117,39.42922],[-74.91147,39.4296],[-74.91099,39.43029],[-74.91064,39.4305],[-74.91037,39.43072],[-74.91041,39.43088],[-74.91018,39.43109],[-74.90997,39.43108],[-74.90982,39.4311],[-74.90973,39.43133],[-74.90944,39.43228],[-74.90905,39.43277],[-74.90878,39.43329],[-74.90882,39.43375],[-74.90862,39.43404],[-74.90862,39.43414],[-74.90846,39.43434],[-74.90856,39.43445],[-74.90857,39.43506],[-74.90862,39.43538],[-74.90857,39.43605],[-74.90857,39.43648],[-74.90841,39.43679],[-74.9082,39.43702],[-74.90783,39.43742],[-74.90751,39.43797],[-74.90706,39.43849],[-74.90645,39.43891],[-74.90597,39.43942],[-74.90567,39.43982],[-74.90508,39.44026],[-74.9049,39.44067],[-74.90448,39.44113],[-74.90374,39.44152],[-74.9033,39.44188],[-74.90296,39.44211],[-74.90276,39.44228],[-74.90213,39.44256],[-74.90163,39.44284],[-74.90131,39.44312],[-74.90041,39.44414],[-74.89995,39.44468],[-74.89953,39.44525],[-74.89941,39.44553],[-74.89943,39.44576],[-74.89943,39.44628],[-74.89912,39.4466],[-74.899,39.44673],[-74.89885,39.44711],[-74.89857,39.44758],[-74.89822,39.44789],[-74.89812,39.44804],[-74.89808,39.44846],[-74.898,39.4492],[-74.89791,39.44965],[-74.89772,39.4501],[-74.89746,39.45051],[-74.89724,39.45098],[-74.89711,39.45153],[-74.89685,39.45256],[-74.91051,39.46233],[-74.91113,39.46277],[-74.92133,39.46995],[-74.92735,39.47418],[-74.93843,39.48201],[-74.94477,39.48647],[-74.95132,39.49109],[-74.96726,39.5023],[-74.97434,39.50728],[-74.98527,39.51497],[-74.99715,39.52331],[-74.99978,39.52516],[-75.00131,39.52624],[-75.00758,39.53065],[-75.01748,39.5376],[-75.02317,39.5416],[-75.03442,39.5495],[-75.04215,39.55493],[-75.04864,39.55949],[-75.05482,39.56381],[-75.05614,39.56474],[-75.06054,39.56783],[-75.06189,39.56859],[-75.06193,39.56841],[-75.06204,39.56802],[-75.06217,39.56775],[-75.0624,39.56745],[-75.06252,39.56731],[-75.06254,39.56712],[-75.06259,39.56695],[-75.06275,39.56664],[-75.06295,39.56651],[-75.06303,39.56636],[-75.06308,39.5659],[-75.06326,39.56575],[-75.06328,39.56555],[-75.06337,39.56537],[-75.06359,39.56528],[-75.06376,39.56515],[-75.06396,39.56503],[-75.06414,39.56499],[-75.06434,39.56484],[-75.06447,39.56472],[-75.06445,39.56464],[-75.06437,39.56449],[-75.06451,39.5644],[-75.06462,39.56433],[-75.06458,39.5642],[-75.06446,39.56394],[-75.06449,39.56382],[-75.06465,39.56363],[-75.06486,39.56326],[-75.06491,39.56309],[-75.06508,39.5628],[-75.06517,39.56252],[-75.06535,39.56203],[-75.06571,39.56149],[-75.0662,39.56122],[-75.06628,39.56108],[-75.06626,39.56088],[-75.0663,39.56051],[-75.06617,39.56034],[-75.06617,39.56016],[-75.06621,39.55971],[-75.06609,39.55923],[-75.06593,39.5587],[-75.06596,39.55842],[-75.06623,39.55809],[-75.06634,39.55797],[-75.06621,39.55782],[-75.06606,39.55765],[-75.06614,39.55746],[-75.06621,39.55722],[-75.06632,39.5571],[-75.0665,39.55706],[-75.06639,39.55684],[-75.06632,39.55667],[-75.06638,39.55654],[-75.06652,39.55645],[-75.06794,39.55552],[-75.06987,39.55312],[-75.07104,39.55044],[-75.07099,39.55021],[-75.07101,39.54997],[-75.0711,39.54965],[-75.07121,39.54944],[-75.07135,39.54928],[-75.07139,39.54901],[-75.07149,39.5488],[-75.07158,39.54863],[-75.07183,39.54867],[-75.07208,39.54874],[-75.0724,39.54873],[-75.07264,39.54846],[-75.07284,39.54811],[-75.07305,39.54792],[-75.07319,39.5477],[-75.07347,39.54754],[-75.07362,39.54739],[-75.07367,39.54707],[-75.07382,39.54677],[-75.07389,39.5466],[-75.07377,39.54651],[-75.07358,39.54653],[-75.07345,39.54664],[-75.07334,39.5466],[-75.07332,39.54645],[-75.07341,39.54634],[-75.07368,39.54615],[-75.07383,39.54612],[-75.07401,39.54619],[-75.07409,39.54614],[-75.07402,39.54603],[-75.07388,39.5459],[-75.07382,39.54575],[-75.0739,39.5457],[-75.07397,39.5456],[-75.07389,39.54552],[-75.07363,39.54543],[-75.07355,39.54533],[-75.07362,39.54526],[-75.07387,39.54524],[-75.07404,39.54518],[-75.07401,39.54505],[-75.07407,39.5449],[-75.07425,39.54481],[-75.07442,39.54462],[-75.07448,39.54443],[-75.07436,39.54426],[-75.07414,39.54414],[-75.07387,39.5441],[-75.07366,39.54404],[-75.07363,39.5439],[-75.07355,39.54377],[-75.07331,39.54376],[-75.07321,39.54367],[-75.07334,39.54355],[-75.07355,39.54346],[-75.07375,39.54328],[-75.07377,39.54296],[-75.07368,39.54277],[-75.07348,39.54276],[-75.0733,39.54295],[-75.07318,39.54313],[-75.073,39.54315],[-75.07293,39.54304],[-75.07291,39.54291],[-75.0726,39.54266],[-75.07234,39.54241],[-75.07236,39.54224],[-75.07233,39.54203],[-75.07222,39.54188],[-75.07221,39.54171],[-75.07199,39.54161],[-75.07168,39.54145],[-75.07163,39.54126],[-75.0718,39.54109],[-75.07179,39.5409],[-75.0717,39.54071],[-75.07165,39.54021],[-75.07147,39.5401],[-75.07132,39.54013],[-75.07115,39.54021],[-75.07102,39.54009],[-75.07109,39.53985],[-75.0713,39.5395],[-75.07125,39.5394],[-75.0712,39.53925],[-75.07141,39.53909],[-75.07159,39.53892],[-75.07154,39.53862],[-75.07157,39.53827],[-75.0717,39.5382],[-75.07193,39.53821],[-75.072,39.53809],[-75.07189,39.53791],[-75.07193,39.53776],[-75.07212,39.53761],[-75.0721,39.53744],[-75.07186,39.53729],[-75.0718,39.53711],[-75.0719,39.53696],[-75.07194,39.53675],[-75.07177,39.53665],[-75.07151,39.53668],[-75.07138,39.53663],[-75.07137,39.53644],[-75.07157,39.53634],[-75.07182,39.53632],[-75.07192,39.53621],[-75.072,39.53604],[-75.07215,39.5359],[-75.07231,39.53586],[-75.07249,39.53603],[-75.07261,39.53609],[-75.0727,39.53593],[-75.07262,39.53563],[-75.07257,39.5354],[-75.07263,39.53508],[-75.07254,39.53476],[-75.07242,39.53433],[-75.07251,39.53401],[-75.07252,39.53382],[-75.07238,39.53369],[-75.07213,39.5336],[-75.07209,39.53341],[-75.07216,39.53332],[-75.07212,39.5332],[-75.07215,39.5331],[-75.07216,39.5329],[-75.07225,39.53267],[-75.07222,39.53257],[-75.07207,39.53253],[-75.07189,39.53258],[-75.07173,39.53266],[-75.07151,39.53267],[-75.0712,39.53258],[-75.07106,39.53244],[-75.0711,39.53234],[-75.0712,39.5323],[-75.07124,39.53221],[-75.07129,39.53213],[-75.07122,39.53204],[-75.07125,39.53197],[-75.07142,39.53193],[-75.07159,39.53188],[-75.07159,39.53176],[-75.0713,39.53165],[-75.07112,39.53157],[-75.07115,39.53138],[-75.07142,39.53133],[-75.07162,39.53125],[-75.07174,39.53109],[-75.0719,39.53097],[-75.07221,39.53085],[-75.07246,39.53076],[-75.07244,39.53062],[-75.07232,39.53056],[-75.07217,39.53048],[-75.07188,39.53031],[-75.07179,39.53011],[-75.07196,39.5299],[-75.07225,39.52963],[-75.0723,39.52945],[-75.07217,39.52937],[-75.07201,39.52926],[-75.07202,39.52912],[-75.07233,39.52893],[-75.07256,39.52876],[-75.07284,39.52859],[-75.07285,39.52844],[-75.07267,39.52836],[-75.07256,39.52826],[-75.07262,39.52812],[-75.0728,39.52803],[-75.0729,39.52793],[-75.07297,39.52766],[-75.07309,39.52758],[-75.07348,39.52749],[-75.07358,39.52739],[-75.07351,39.52727],[-75.0732,39.5272],[-75.07314,39.52706],[-75.07328,39.52691],[-75.0734,39.52672],[-75.07329,39.52647],[-75.07308,39.52637],[-75.0729,39.52629],[-75.07286,39.52615],[-75.07305,39.52604],[-75.07309,39.52591],[-75.07288,39.52585],[-75.07269,39.52582],[-75.0726,39.52566],[-75.0727,39.52549],[-75.07281,39.52537],[-75.0728,39.52525],[-75.07258,39.52504],[-75.0725,39.52484],[-75.07259,39.52477],[-75.07273,39.52468],[-75.07278,39.52445],[-75.07286,39.52429],[-75.07276,39.52422],[-75.07251,39.52429],[-75.07234,39.52433],[-75.07224,39.52431],[-75.0722,39.52411],[-75.07221,39.52381],[-75.07237,39.5237],[-75.07268,39.52365],[-75.0729,39.52361],[-75.07291,39.52334],[-75.07292,39.52301],[-75.07288,39.52286],[-75.07277,39.52284],[-75.07257,39.5229],[-75.07248,39.52283],[-75.07259,39.52263],[-75.07293,39.5225],[-75.07299,39.52241],[-75.07292,39.52231],[-75.07289,39.52206],[-75.07295,39.52185],[-75.07317,39.52167],[-75.07346,39.52157],[-75.07351,39.52145],[-75.07356,39.52132],[-75.07382,39.52121],[-75.07387,39.52111],[-75.0738,39.521],[-75.07375,39.52083],[-75.07389,39.52077],[-75.07416,39.52086],[-75.07431,39.52082],[-75.07433,39.52064],[-75.07433,39.52046],[-75.07453,39.52037],[-75.07472,39.52038],[-75.07477,39.52024],[-75.07467,39.52015],[-75.0744,39.52006],[-75.07429,39.51982],[-75.07439,39.51964],[-75.07468,39.51961],[-75.07497,39.51969],[-75.07519,39.51971],[-75.07529,39.51963],[-75.07513,39.51948],[-75.07484,39.51929],[-75.07478,39.51913],[-75.07498,39.51895],[-75.07547,39.51896],[-75.07566,39.51889],[-75.07562,39.51871],[-75.07552,39.51848],[-75.07555,39.51831],[-75.07547,39.51818],[-75.07527,39.5182],[-75.07505,39.51819],[-75.07499,39.51808],[-75.07507,39.51798],[-75.07538,39.51787],[-75.07555,39.51774],[-75.0755,39.51761],[-75.07514,39.51744],[-75.07505,39.51728],[-75.07517,39.51715],[-75.07532,39.51702],[-75.0754,39.51676],[-75.07543,39.51648],[-75.07532,39.51638],[-75.0751,39.5162],[-75.07514,39.51603],[-75.07536,39.51595],[-75.07561,39.51584],[-75.0756,39.51568],[-75.07546,39.51559],[-75.07545,39.51531],[-75.07551,39.51507],[-75.07577,39.51513],[-75.07588,39.51514],[-75.07592,39.51502],[-75.07593,39.51476],[-75.07608,39.51464],[-75.07641,39.51446],[-75.07674,39.51423],[-75.07692,39.5142],[-75.07706,39.51426],[-75.0772,39.51422],[-75.07724,39.51405],[-75.07718,39.51392],[-75.07705,39.51388],[-75.07691,39.51389],[-75.07681,39.51364],[-75.0767,39.51341],[-75.07674,39.51325],[-75.07699,39.5132],[-75.07717,39.51315],[-75.0774,39.51286],[-75.07748,39.51263],[-75.07741,39.5125],[-75.07724,39.51241],[-75.07726,39.51228],[-75.07737,39.51224],[-75.07755,39.51232],[-75.0777,39.51237],[-75.07789,39.51234],[-75.07803,39.51219],[-75.07802,39.51198],[-75.0779,39.51185],[-75.07775,39.5117],[-75.07782,39.51156],[-75.07799,39.51133],[-75.07793,39.51117],[-75.07777,39.51114],[-75.0776,39.51126],[-75.07744,39.51134],[-75.07723,39.5113],[-75.07714,39.51116],[-75.07721,39.51105],[-75.07738,39.51091],[-75.07743,39.51078],[-75.07741,39.5106],[-75.07753,39.51035],[-75.07742,39.51021],[-75.0773,39.51006],[-75.07736,39.50994],[-75.07754,39.50993],[-75.07777,39.50994],[-75.07787,39.5098],[-75.07777,39.50966],[-75.07754,39.50955],[-75.07745,39.50938],[-75.07756,39.50924],[-75.07768,39.5091],[-75.07756,39.50891],[-75.07711,39.5087],[-75.07686,39.50866],[-75.07672,39.50855],[-75.07673,39.50842],[-75.07696,39.50833],[-75.0772,39.50815],[-75.07723,39.50801],[-75.07712,39.50792],[-75.07688,39.50793],[-75.07669,39.5079],[-75.07663,39.50771],[-75.07679,39.50748],[-75.07705,39.50725],[-75.07727,39.50709],[-75.07738,39.50712],[-75.07747,39.50727],[-75.07763,39.5073],[-75.07773,39.50717],[-75.07786,39.50692],[-75.078,39.50674],[-75.07796,39.50653],[-75.07754,39.50622],[-75.07732,39.50617],[-75.07712,39.50613],[-75.07713,39.50598],[-75.07731,39.50587],[-75.07748,39.50576],[-75.07768,39.5056],[-75.078,39.50541],[-75.07806,39.50521],[-75.07785,39.50513],[-75.07758,39.50514],[-75.07734,39.50525],[-75.07712,39.50524],[-75.07686,39.50499],[-75.0769,39.50484],[-75.07724,39.5047],[-75.0774,39.50463],[-75.07761,39.50455],[-75.07794,39.5045],[-75.07808,39.50444],[-75.07811,39.50432],[-75.07802,39.50426],[-75.07779,39.50423],[-75.07768,39.50404],[-75.0778,39.50378],[-75.07789,39.50373],[-75.07826,39.50369],[-75.07857,39.5037],[-75.07862,39.50355],[-75.07861,39.50322],[-75.07841,39.50312],[-75.07821,39.50297],[-75.07821,39.5028],[-75.07841,39.50276],[-75.0787,39.50276],[-75.07887,39.50266],[-75.07892,39.50252],[-75.07882,39.50239],[-75.07878,39.50219],[-75.07888,39.50203],[-75.07914,39.50192],[-75.07941,39.50176],[-75.07973,39.50138],[-75.07976,39.50108],[-75.07968,39.50088],[-75.07955,39.50064],[-75.0794,39.50039],[-75.07923,39.5001],[-75.07926,39.49994],[-75.07935,39.49969],[-75.07924,39.49943],[-75.07894,39.49942],[-75.07875,39.4995],[-75.07864,39.49947],[-75.07865,39.49933],[-75.07879,39.49918],[-75.07897,39.49907],[-75.07905,39.49891],[-75.07908,39.4986],[-75.07896,39.49843],[-75.07871,39.49841],[-75.07853,39.49857],[-75.07838,39.49857],[-75.07828,39.49845],[-75.07836,39.49827],[-75.07864,39.49813],[-75.07871,39.498],[-75.07865,39.49776],[-75.07849,39.49766],[-75.07834,39.49751],[-75.07841,39.49732],[-75.07852,39.49722],[-75.0785,39.49705],[-75.07817,39.49693],[-75.07786,39.49683],[-75.07768,39.49682],[-75.07743,39.49689],[-75.07716,39.49691],[-75.07689,39.49679],[-75.07656,39.49636],[-75.07639,39.49607],[-75.0763,39.49574],[-75.07617,39.49525],[-75.07601,39.495],[-75.07595,39.49461],[-75.07557,39.49412],[-75.0751,39.49402],[-75.0748,39.49386],[-75.07455,39.49365],[-75.07447,39.49342],[-75.07471,39.49323],[-75.07459,39.49295],[-75.07407,39.49281],[-75.0739,39.49267],[-75.07382,39.49247],[-75.07385,39.49224],[-75.07399,39.49215],[-75.07411,39.49211],[-75.07421,39.49202],[-75.07404,39.49171],[-75.07374,39.49155],[-75.07384,39.49137],[-75.07408,39.49136],[-75.07437,39.4914],[-75.0747,39.49138],[-75.07495,39.49129],[-75.07512,39.4911],[-75.07513,39.49078],[-75.07498,39.49071],[-75.07473,39.49056],[-75.07463,39.49035],[-75.07471,39.49009],[-75.07487,39.4899],[-75.07517,39.48991],[-75.07536,39.48986],[-75.07541,39.48965],[-75.07527,39.48956],[-75.07507,39.48953],[-75.07493,39.48942],[-75.07469,39.4894],[-75.07443,39.48936],[-75.07434,39.48923],[-75.07447,39.48906],[-75.07472,39.48898],[-75.07505,39.48899],[-75.07522,39.48894],[-75.07525,39.48873],[-75.07514,39.48854],[-75.07504,39.4882],[-75.07489,39.48797],[-75.07473,39.48752],[-75.07436,39.48742],[-75.07424,39.48732],[-75.0742,39.48708],[-75.0743,39.48695],[-75.07424,39.48677],[-75.07405,39.48663],[-75.07395,39.48648],[-75.07411,39.48636],[-75.07427,39.4863],[-75.07435,39.48616],[-75.07411,39.48591],[-75.07359,39.48564],[-75.0733,39.48554],[-75.07318,39.48531],[-75.0733,39.48513],[-75.07349,39.48515],[-75.07372,39.48518],[-75.07387,39.48501],[-75.07377,39.4848],[-75.07338,39.48467],[-75.07335,39.48453],[-75.07367,39.48439],[-75.07411,39.48424],[-75.07444,39.48402],[-75.0745,39.48381],[-75.07432,39.48359],[-75.07398,39.48338],[-75.074,39.48321],[-75.0742,39.48311],[-75.07456,39.48255],[-75.0746,39.48218],[-75.07491,39.48205],[-75.07589,39.48164],[-75.07607,39.48142],[-75.07591,39.48133],[-75.07578,39.4812],[-75.07588,39.48099],[-75.07587,39.4806],[-75.07573,39.48012],[-75.07575,39.47989],[-75.07578,39.47961],[-75.07599,39.47919],[-75.07617,39.47917],[-75.07634,39.47927],[-75.07648,39.47926],[-75.07659,39.47895],[-75.07689,39.47873],[-75.07708,39.47884],[-75.07726,39.47885],[-75.07734,39.47868],[-75.07727,39.47847],[-75.07703,39.47815],[-75.07693,39.4778],[-75.07705,39.47762],[-75.07731,39.47755],[-75.0775,39.47745],[-75.07752,39.47723],[-75.07738,39.47713],[-75.07692,39.47713],[-75.07679,39.47703],[-75.07687,39.47675],[-75.07736,39.47671],[-75.07766,39.47675],[-75.07795,39.47685],[-75.07802,39.47698],[-75.07825,39.477],[-75.07838,39.47691],[-75.07843,39.47683],[-75.07828,39.47664],[-75.0781,39.47649],[-75.07806,39.47629],[-75.07813,39.47611],[-75.07818,39.47591],[-75.07821,39.47566],[-75.07815,39.47549],[-75.07822,39.47531],[-75.07816,39.47508],[-75.07827,39.47485],[-75.07834,39.47458],[-75.07854,39.47453],[-75.07881,39.47454],[-75.07894,39.4744],[-75.07894,39.47421],[-75.07856,39.474],[-75.07807,39.47377],[-75.07803,39.47334],[-75.07861,39.47277],[-75.07934,39.47229],[-75.08035,39.47202],[-75.0806,39.47184],[-75.08066,39.47161],[-75.08035,39.47136],[-75.0803,39.47119],[-75.08056,39.47102],[-75.0807,39.47089],[-75.08048,39.47065],[-75.08039,39.47038],[-75.08073,39.47014],[-75.0808,39.47],[-75.08076,39.46961],[-75.08055,39.46954],[-75.08016,39.46951],[-75.07998,39.46936],[-75.08003,39.46912],[-75.08015,39.46886],[-75.08004,39.46862],[-75.07977,39.4685],[-75.07961,39.46832],[-75.07967,39.46814],[-75.08029,39.46801],[-75.08064,39.46773],[-75.08062,39.46756],[-75.08091,39.4675],[-75.08128,39.46756],[-75.08132,39.46723],[-75.08142,39.467],[-75.08163,39.46666],[-75.08146,39.46594],[-75.08171,39.46555],[-75.08169,39.46521],[-75.08159,39.46502],[-75.08194,39.46478],[-75.08163,39.46462],[-75.08123,39.46451],[-75.08113,39.46432],[-75.08172,39.46404],[-75.08114,39.46378],[-75.08103,39.46366],[-75.08133,39.46289],[-75.08112,39.46265],[-75.0807,39.46267],[-75.08049,39.46261],[-75.08043,39.4624],[-75.08055,39.46221],[-75.08077,39.46208],[-75.08082,39.46189],[-75.08082,39.46153],[-75.08086,39.46117],[-75.08089,39.46098],[-75.08082,39.46093],[-75.08057,39.46089],[-75.08035,39.46071],[-75.08029,39.46048],[-75.08051,39.46024],[-75.08079,39.46009],[-75.08107,39.45997],[-75.08142,39.45999],[-75.08175,39.45995],[-75.08185,39.45981],[-75.08174,39.45956],[-75.08174,39.4594],[-75.08201,39.45909],[-75.08228,39.45903],[-75.08259,39.45918],[-75.0827,39.45918],[-75.0828,39.4591],[-75.08303,39.45881],[-75.08313,39.45861],[-75.08321,39.45848],[-75.08339,39.4584],[-75.08348,39.45819],[-75.08346,39.45801],[-75.08334,39.45792],[-75.0832,39.45782],[-75.08322,39.45766],[-75.08347,39.4575],[-75.08383,39.45755],[-75.08382,39.45732],[-75.08379,39.45718],[-75.08364,39.45704],[-75.08336,39.45687],[-75.08329,39.45656],[-75.08338,39.4562],[-75.08323,39.456],[-75.08278,39.45588],[-75.08263,39.45574],[-75.08265,39.45552],[-75.08249,39.45531],[-75.08212,39.45521],[-75.08175,39.45517],[-75.08154,39.45501],[-75.08156,39.45481],[-75.08175,39.45462],[-75.08177,39.45445],[-75.08162,39.45421],[-75.08159,39.45385],[-75.08169,39.45343],[-75.0819,39.45312],[-75.08224,39.45278],[-75.08249,39.45257],[-75.08283,39.4515],[-75.08301,39.4507],[-75.08262,39.45059],[-75.08228,39.45041],[-75.08212,39.45018],[-75.08223,39.44986],[-75.08243,39.4496],[-75.08236,39.4493],[-75.08661,39.44781]]]},"properties":{"NAME":"Vineland city","GEOID":"3476070"}}]}